1 40069U 14037A   16344.49324306 -.00000036  00000-0  36512-5 0  9995
2 40069  98.6837  36.8902 0006607  47.2824 312.8911 14.20637311125625
1 40069U 14037A   16344.84539619 -.00000036  00000-0  32405-5 0  9996
2 40069  98.6837  37.2360 0006594  46.5592 313.6126 14.20637278125671
1 40069U 14037A   16345.19754934 -.00000030  00000-0  62369-5 0  9990
2 40069  98.6837  37.5819 0006554  45.8700 314.3021 14.20637386125720
1 40069U 14037A   16345.54970235 -.00000025  00000-0  84755-5 0  9990
2 40069  98.6837  37.9279 0006548  45.0475 315.1238 14.20637471125777
1 40069U 14037A   16345.83142482 -.00000025  00000-0  83663-5 0  9994
2 40069  98.6837  38.2046 0006547  44.6143 315.5552 14.20637436125818
1 40069U 14037A   16346.18357799 -.00000017  00000-0  12438-4 0  9994
2 40069  98.6837  38.5506 0006487  43.8406 316.3297 14.20637573125860
1 40069U 14037A   16346.53573091 -.00000017  00000-0  12294-4 0  9998
2 40069  98.6838  38.8968 0006486  42.9574 317.2112 14.20637599125911
1 40069U 14037A   16346.88788402 -.00000017  00000-0  12135-4 0  9994
2 40069  98.6837  39.2426 0006478  42.3715 317.7955 14.20637573125963
1 40069U 14037A   16347.16960676 -.00000022  00000-0  98733-5 0  9996
2 40069  98.6837  39.5193 0006449  41.8472 318.3203 14.20637542126004
1 40069U 14037A   16347.52175983 -.00000028  00000-0  69847-5 0  9995
2 40069  98.6837  39.8653 0006427  41.1860 318.9800 14.20637491126055
1 40069U 14037A   16347.80348243 -.00000037  00000-0  29743-5 0  9998
2 40069  98.6837  40.1419 0006414  40.5917 319.5727 14.20637368126094
1 40069U 14037A   16348.22606655 -.00000045  00000-0 -61868-6 0  9994
2 40069  98.6836  40.5570 0006400  39.6247 320.5396 14.20637285126154
1 40069U 14037A   16348.50778913 -.00000049  00000-0 -24677-5 0  9992
2 40069  98.6836  40.8337 0006381  38.9637 321.2000 14.20637254126191
1 40069U 14037A   16348.85994236 -.00000060  00000-0 -78213-5 0  9996
2 40069  98.6835  41.1797 0006376  38.0863 322.0746 14.20637074126242
1 40069U 14037A   16349.21209586 -.00000060  00000-0 -76532-5 0  9996
2 40069  98.6834  41.5256 0006339  37.2799 322.8822 14.20637097126296
1 40069U 14037A   16349.49381832 -.00000060  00000-0 -76549-5 0  9999
2 40069  98.6834  41.8022 0006325  36.5151 323.6458 14.20637108126331
1 40069U 14037A   16349.84597142 -.00000058  00000-0 -65482-5 0  9992
2 40069  98.6833  42.1481 0006324  35.7825 324.3767 14.20637112126382
1 40069U 14037A   16350.19812448 -.00000049  00000-0 -23640-5 0  9991
2 40069  98.6832  42.4939 0006266  34.9856 325.1741 14.20637258126430
1 40069U 14037A   16350.33898559 -.00000046  00000-0 -12206-5 0  9997
2 40069  98.6832  42.6322 0006269  34.6366 325.5220 14.20637285126452
1 40069U 14037A   16350.69113869 -.00000043  00000-0  96621-7 0  9991
2 40069  98.6831  42.9780 0006253  33.9974 326.1605 14.20637328126500
1 40069U 14037A   16352.45190464 -.00000020  00000-0  10957-4 0  9993
2 40069  98.6831  44.7072 0006253  28.9192 331.2384 14.20637684126753
1 40069U 14037A   16352.80405664 -.00000021  00000-0  10339-4 0  9998
2 40069  98.6827  45.0534 0006154  28.6279 331.5222 14.20637658126809
1 40069U 14037A   16353.15621003 -.00000022  00000-0  98851-5 0  9991
2 40069  98.6826  45.3993 0006118  27.9034 332.2475 14.20637672126850
1 40069U 14037A   16353.50836301 -.00000024  00000-0  89138-5 0  9999
2 40069  98.6825  45.7450 0006098  26.9986 333.1508 14.20637673126907
1 40069U 14037A   16353.71965486 -.00000028  00000-0  70770-5 0  9995
2 40069  98.6825  45.9526 0006095  26.2611 333.8870 14.20637634126937
1 40069U 14037A   16354.21266949 -.00000034  00000-0  45772-5 0  9990
2 40069  98.6823  46.4367 0006101  24.6788 335.4679 14.20637567127008
1 40069U 14037A   16354.56482257 -.00000032  00000-0  52485-5 0  9997
2 40069  98.6822  46.7825 0006078  23.8149 336.3312 14.20637611127053
1 40069U 14037A   16353.86051617 -.00000034 +00000-0 +45697-5 0  9990
2 40069 098.6824 046.0908 0006107 025.7128 334.4337 14.20637538126953
1 40069U 14037A   16354.84654503 -.00000033  00000-0  48215-5 0  9990
2 40069  98.6821  47.0589 0006081  22.9601 337.1842 14.20637584127090
1 40069U 14037A   16355.19869800 -.00000023  00000-0  97025-5 0  9999
2 40069  98.6820  47.4047 0006069  21.8141 338.3300 14.20637751127149
1 40069U 14037A   16355.55085087 -.00000019  00000-0  11567-4 0  9997
2 40069  98.6819  47.7506 0006050  20.9136 339.2292 14.20637827127193
1 40069U 14037A   16355.90300386 -.00000010  00000-0  15395-4 0  9992
2 40069  98.6819  48.0965 0006032  20.1003 340.0412 14.20637904127247
1 40069U 14037A   16356.18472624 -.00000005  00000-0  17971-4 0  9994
2 40069  98.6819  48.3731 0006012  19.1892 340.9523 14.20638017127285
1 40069U 14037A   16356.46644839 -.00000003  00000-0  18777-4 0  9997
2 40069  98.6818  48.6499 0006009  18.4666 341.6730 14.20638067127323
1 40069U 14037A   16356.88903199 -.00000288  00000-0 -11375-3 0  9992
2 40069  98.6804  49.0656 0005803  18.2448 341.8928 14.20637059127382
1 40069U 14037A   16357.17075466 -.00000183  00000-0 -64960-4 0  9995
2 40069  98.6807  49.3419 0005767  17.2267 342.9131 14.20637554127425
1 40069U 14037A   16357.52290758 -.00000259  00000-0 -10035-3 0  9994
2 40069  98.6808  49.6878 0005786  16.6863 343.4515 14.20637384127472
1 40069U 14037A   16357.87506089 -.00000335  00000-0 -13554-3 0  9993
2 40069  98.6809  50.0342 0005717  15.7935 344.3401 14.20636336127525
1 40069U 14037A   16358.15678380 -.00000254  00000-0 -97870-4 0  9993
2 40069  98.6809  50.3113 0005669  15.0332 345.1033 14.20636773127563
1 40069U 14037A   16358.50893652 -.00000164  00000-0 -55903-4 0  9994
2 40069  98.6809  50.6573 0005634  14.1197 346.0148 14.20637144127613
1 40069U 14037A   16358.01592263 -.00000249 +00000-0 -95607-4 0  9993
2 40069 098.6809 050.1726 0005722 015.4687 344.6673 14.20636607127546
1 40069U 14037A   16358.86108942 -.00000022  00000-0  99562-5 0  9996
2 40069  98.6808  51.0035 0005614  13.8583 346.2720 14.20636994127668
1 40069U 14037A   16359.21324281 -.00000046  00000-0 -95792-6 0  9991
2 40069  98.6811  51.3476 0005815  11.4767 348.6542 14.20637660127710
1 40069U 14037A   16359.49496532 -.00000047  00000-0 -15035-5 0  9992
2 40069  98.6811  51.6243 0005842  10.6131 349.5171 14.20637666127759
1 40069U 14037A   16359.84711839 -.00000053  00000-0 -46411-5 0  9990
2 40069  98.6810  51.9700 0005837   9.6195 350.5083 14.20637563127807
1 40069U 14037A   16360.19927153 -.00000048  00000-0 -19134-5 0  9994
2 40069  98.6810  52.3158 0005811   8.5461 351.5820 14.20637658127855
1 40069U 14037A   16360.55142451 -.00000046  00000-0 -96992-6 0  9990
2 40069  98.6810  52.6617 0005791   7.7214 352.4057 14.20637699127905
1 40069U 14037A   16360.83314688 -.00000043  00000-0  50630-7 0  9990
2 40069  98.6810  52.9383 0005785   7.1548 352.9705 14.20637691127946
1 40069U 14037A   16361.60788381 -.00000033  00000-0  50445-5 0  9992
2 40069  98.6810  53.6990 0005785   4.9203 355.2060 14.20637860128052
1 40069U 14037A   16361.74874445 -.00000029  00000-0  66886-5 0  9995
2 40069  98.6809  53.8376 0005722   4.7358 355.3871 14.20637902128070
1 40069U 14037A   16362.10089769 -.00000029  00000-0  66799-5 0  9996
2 40069  98.6808  54.1837 0005715   3.6209 356.5016 14.20637905128123
1 40069U 14037A   16362.38261997 -.00000032  00000-0  51631-5 0  9994
2 40069  98.6808  54.4602 0005697   2.8551 357.2656 14.20637880128160
1 40069U 14037A   16361.88960570 -.00000030 +00000-0 +63133-5 0  9999
2 40069 098.6808 053.9759 0005711 004.4157 355.7061 14.20637865128092
1 40069U 14037A   16362.73477305 -.00000033  00000-0  47092-5 0  9992
2 40069  98.6807  54.8060 0005685   1.9986 358.1210 14.20637872128213
1 40069U 14037A   16363.08692631 -.00000034  00000-0  42276-5 0  9992
2 40069  98.6807  55.1519 0005629   0.8143 359.3055 14.20637863128262
1 40069U 14037A   16363.43907920 -.00000043  00000-0  26857-6 0  9999
2 40069  98.6806  55.4978 0005627 359.8273   0.2899 14.20637783128317
1 40069U 14037A   16362.94606493 -.00000036 +00000-0 +32644-5 0  9997
2 40069 098.6806 055.0135 0005655 001.4340 358.6845 14.20637814128242
1 40069U 14037A   16363.93209355 -.00000460  00000-0 -19334-3 0  9994
2 40069  98.6795  55.9827 0005224 357.9506   2.1633 14.20635931128380
1 40069U 14037A   16363.57994048 -.00000044  00000-0 -14100-6 0  9991
2 40069  98.6806  55.6362 0005624 359.4394   0.6777 14.20637778128338
1 40069U 14037A   16364.21381626 -.00000055  00000-0 -53006-5 0  9994
2 40069  98.6805  56.2586 0005574 357.6393   2.4756 14.20637624128422
1 40069U 14037A   16364.56596937 -.00000055  00000-0 -55314-5 0  9999
2 40069  98.6805  56.6044 0005569 356.6607   3.4535 14.20637632128476
1 40069U 14037A   16364.84769182 -.00000056  00000-0 -59848-5 0  9991
2 40069  98.6805  56.8811 0005549 355.9289   4.1836 14.20637588128513
1 40069U 14037A   16365.19984484 -.00000047  00000-0 -14772-5 0  9991
2 40069  98.6804  57.2268 0005540 354.7465   5.3661 14.20637733128563
1 40069U 14037A   16365.55199767 -.00000041  00000-0  11254-5 0  9998
2 40069  98.6803  57.5726 0005527 353.8040   6.3072 14.20637818128615
1 40069U 14037A   16365.83372004 -.00000034  00000-0  45755-5 0  9991
2 40069  98.6802  57.8491 0005496 353.2913   6.8188 14.20637879128658
1 40069U 14037A   16366.18587295 -.00000020  00000-0  10899-4 0  9995
2 40069  98.6803  58.1951 0005475 352.0592   8.0510 14.20638066128709
1 40069U 14037A   16366.46759506 -.00000016  00000-0  12824-4 0  9997
2 40069  98.6802  58.4717 0005468 351.2343   8.8741 14.20638141128740
1 40069U 14037A   16366.89017860 -.00000010  00000-0  15575-4 0  9994
2 40069  98.6801  58.8867 0005441 350.1873   9.9193 14.20638191128801
1 40069U 14037A   17001.24232013 -.00000008  00000-0  16449-4 0  9997
2 40069  98.6801  59.2326 0005411 349.0191  11.0878 14.20638254128852
1 40069U 14037A   17001.52404233 -.00000010  00000-0  15756-4 0  9996
2 40069  98.6800  59.5091 0005412 348.1874  11.9176 14.20638264128897
